CTC2_L_00665007-03
1 29765U 23609BL  26070.40853009  .00000000  00000+0  00000-0 0  9992
2 29765  55.0000 180.0000 0000000   0.0000 144.0000  2.02645322    16
CTC2_L_00665007-04
1 29766U 22961JM  26070.40853009  .00000000  00000+0  00000-0 0  9993
2 29766  55.0000 180.0000 0000000   0.0000 180.0000  2.02645322    17
CTC2_L_00665007-05
1 29767U 26193UX  26070.40853009  .00000000  00000+0  00000-0 0  9995
2 29767  55.0000 180.0000 0000000   0.0000 216.0000  2.02645322    18
CTC2_L_00665007-06
1 29768U 26896YT  26070.40853009  .00000000  00000+0  00000-0 0  9996
2 29768  55.0000 180.0000 0000000   0.0000 252.0000  2.02645322    19
CTC2_L_00665007-07
1 29769U 25641GF  26070.40853009  .00000000  00000+0  00000-0 0  9994
2 29769  55.0000 180.0000 0000000   0.0000 288.0000  2.02645322    19
CTC2_L_00665007-08
1 29770U 26423EZ  26070.40853009  .00000000  00000+0  00000-0 0  9995
2 29770  55.0000 180.0000 0000000   0.0000 324.0000  2.02645322    12
CTC2_L_00665007-09
1 29771U 23069FD  26070.40853009  .00000000  00000+0  00000-0 0  9999
2 29771  55.0000 180.0000 0000000   0.0000   0.0000  2.02645322    14
CTC2_L_00665007-10
1 29772U 23351QW  26070.40853009  .00000000  00000+0  00000-0 0  9994
2 29772  55.0000 180.0000 0000000   0.0000  36.0000  2.02645322    14
CTC2_L_00665008-01
1 29773U 23178UP  26070.40853009  .00000000  00000+0  00000-0 0  9992
2 29773  55.0000 210.0000 0000000   0.0000  84.0000  2.02645322    12
CTC2_L_00665008-02
1 29774U 26564ET  26070.40853009  .00000000  00000+0  00000-0 0  9995
2 29774  55.0000 210.0000 0000000   0.0000 120.0000  2.02645322    14
CTC2_L_00665008-03
1 29775U 24524HH  26070.40853009  .00000000  00000+0  00000-0 0  9990
2 29775  55.0000 210.0000 0000000   0.0000 156.0000  2.02645322    14
CTC2_L_00665008-04
1 29776U 26883AT  26070.40853009  .00000000  00000+0  00000-0 0  9991
2 29776  55.0000 210.0000 0000000   0.0000 192.0000  2.02645322    15
CTC2_L_00665008-05
1 29777U 26436OA  26070.40853009  .00000000  00000+0  00000-0 0  9996
2 29777  55.0000 210.0000 0000000   0.0000 228.0000  2.02645322    16
CTC2_L_00665008-06
1 29778U 22996LO  26070.40853009  .00000000  00000+0  00000-0 0  9994
2 29778  55.0000 210.0000 0000000   0.0000 264.0000  2.02645322    17
CTC2_L_00665008-07
1 29779U 25407WX  26070.40853009  .00000000  00000+0  00000-0 0  9995
2 29779  55.0000 210.0000 0000000   0.0000 300.0000  2.02645322    19
CTC2_L_00665008-08
1 29780U 22424GI  26070.40853009  .00000000  00000+0  00000-0 0  9993
2 29780  55.0000 210.0000 0000000   0.0000 336.0000  2.02645322    10
CTC2_L_00665008-09
1 29781U 26394PT  26070.40853009  .00000000  00000+0  00000-0 0  9994
2 29781  55.0000 210.0000 0000000   0.0000  12.0000  2.02645322    12
CTC2_L_00665008-10
1 29782U 22402NH  26070.40853009  .00000000  00000+0  00000-0 0  9991
2 29782  55.0000 210.0000 0000000   0.0000  48.0000  2.02645322    12
CTC2_L_00665009-01
1 29783U 26574AM  26070.40853009  .00000000  00000+0  00000-0 0  9996
2 29783  55.0000 240.0000 0000000   0.0000  96.0000  2.02645322    19
CTC2_L_00665009-02
1 29784U 23042XK  26070.40853009  .00000000  00000+0  00000-0 0  9994
2 29784  55.0000 240.0000 0000000   0.0000 132.0000  2.02645322    11
CTC2_L_00665009-03
1 29785U 25447YS  26070.40853009  .00000000  00000+0  00000-0 0  9996
2 29785  55.0000 240.0000 0000000   0.0000 168.0000  2.02645322    11
CTC2_L_00665009-04
1 29786U 23627FQ  26070.40853009  .00000000  00000+0  00000-0 0  9995
2 29786  55.0000 240.0000 0000000   0.0000 204.0000  2.02645322    13
CTC2_L_00665009-05
1 29787U 23616RS  26070.40853009  .00000000  00000+0  00000-0 0  9994
2 29787  55.0000 240.0000 0000000   0.0000 240.0000  2.02645322    14
CTC2_L_00665009-06
1 29788U 25803CV  26070.40853009  .00000000  00000+0  00000-0 0  9995
2 29788  55.0000 240.0000 0000000   0.0000 276.0000  2.02645322    14
CTC2_L_00665009-07
1 29789U 26848VW  26070.40853009  .00000000  00000+0  00000-0 0  9996
2 29789  55.0000 240.0000 0000000   0.0000 312.0000  2.02645322    16
CTC2_L_00665009-08
1 29790U 22256VV  26070.40853009  .00000000  00000+0  00000-0 0  9997
2 29790  55.0000 240.0000 0000000   0.0000 348.0000  2.02645322    17
CTC2_L_00665009-09
1 29791U 24755K   26070.40853009  .00000000  00000+0  00000-0 0  9994
2 29791  55.0000 240.0000 0000000   0.0000  24.0000  2.02645322    19
CTC2_L_00665009-10
1 29792U 23475WI  26070.40853009  .00000000  00000+0  00000-0 0  9993
2 29792  55.0000 240.0000 0000000   0.0000  60.0000  2.02645322    10
CTC2_L_00665010-01
1 29793U 25464CL  26070.40853009  .00000000  00000+0  00000-0 0  9994
2 29793  55.0000 270.0000 0000000   0.0000 108.0000  2.02645322    17
CTC2_L_00665010-02
1 29794U 25621LO  26070.40853009  .00000000  00000+0  00000-0 0  9990
2 29794  55.0000 270.0000 0000000   0.0000 144.0000  2.02645322    18
CTC2_L_00665010-03
1 29795U 22759TN  26070.40853009  .00000000  00000+0  00000-0 0  9990
2 29795  55.0000 270.0000 0000000   0.0000 180.0000  2.02645322    19
CTC2_L_00665010-04
1 29796U 25207KC  26070.40853009  .00000000  00000+0  00000-0 0  9992
2 29796  55.0000 270.0000 0000000   0.0000 216.0000  2.02645322    10
CTC2_L_00665010-05
1 29797U 26367QL  26070.40853009  .00000000  00000+0  00000-0 0  9991
2 29797  55.0000 270.0000 0000000   0.0000 252.0000  2.02645322    11
CTC2_L_00665010-06
1 29798U 26381QJ  26070.40853009  .00000000  00000+0  00000-0 0  9998
2 29798  55.0000 270.0000 0000000   0.0000 288.0000  2.02645322    11
CTC2_L_00665010-07
1 29799U 25553SF  26070.40853009  .00000000  00000+0  00000-0 0  9999
2 29799  55.0000 270.0000 0000000   0.0000 324.0000  2.02645322    13
CTC2_L_00665010-08
1 29800U 24604RV  26070.40853009  .00000000  00000+0  00000-0 0  9998
2 29800  55.0000 270.0000 0000000   0.0000   0.0000  2.02645322    17
CTC2_L_00665010-09
1 29801U 24438IJ  26070.40853009  .00000000  00000+0  00000-0 0  9994
2 29801  55.0000 270.0000 0000000   0.0000  36.0000  2.02645322    17
CTC2_L_00665010-10
1 29802U 23302AT  26070.40853009  .00000000  00000+0  00000-0 0  9994
2 29802  55.0000 270.0000 0000000   0.0000  72.0000  2.02645322    18
CTC2_L_00665011-01
1 29803U 25539DU  26070.40853009  .00000000  00000+0  00000-0 0  9999
2 29803  55.0000 300.0000 0000000   0.0000 120.0000  2.02645322    17
CTC2_L_00665011-02
1 29804U 24807CD  26070.40853009  .00000000  00000+0  00000-0 0  9997
2 29804  55.0000 300.0000 0000000   0.0000 156.0000  2.02645322    17
CTC2_L_00665011-03
1 29805U 22011FS  26070.40853009  .00000000  00000+0  00000-0 0  9993
2 29805  55.0000 300.0000 0000000   0.0000 192.0000  2.02645322    18
CTC2_L_00665011-04
1 29806U 25039PM  26070.40853009  .00000000  00000+0  00000-0 0  9997
2 29806  55.0000 300.0000 0000000   0.0000 228.0000  2.02645322    19
CTC2_L_00665011-05
1 29807U 24897BN  26070.40853009  .00000000  00000+0  00000-0 0  9999
2 29807  55.0000 300.0000 0000000   0.0000 264.0000  2.02645322    10
CTC2_L_00665011-06
1 29808U 24468WY  26070.40853009  .00000000  00000+0  00000-0 0  9994
2 29808  55.0000 300.0000 0000000   0.0000 300.0000  2.02645322    12
CTC2_L_00665011-07
1 29809U 22551TX  26070.40853009  .00000000  00000+0  00000-0 0  9996
2 29809  55.0000 300.0000 0000000   0.0000 336.0000  2.02645322    12
CTC2_L_00665011-08
1 29810U 24328YR  26070.40853009  .00000000  00000+0  00000-0 0  9992
2 29810  55.0000 300.0000 0000000   0.0000  12.0000  2.02645322    15
CTC2_L_00665011-09
1 29811U 25011VG  26070.40853009  .00000000  00000+0  00000-0 0  9993
2 29811  55.0000 300.0000 0000000   0.0000  48.0000  2.02645322    15
CTC2_L_00665011-10
1 29812U 23469RQ  26070.40853009  .00000000  00000+0  00000-0 0  9999
2 29812  55.0000 300.0000 0000000   0.0000  84.0000  2.02645322    16
CTC2_L_00665012-01
1 29813U 23207GC  26070.40853009  .00000000  00000+0  00000-0 0  9990
2 29813  55.0000 330.0000 0000000   0.0000 132.0000  2.02645322    14
CTC2_L_00665012-02
1 29814U 25829SY  26070.40853009  .00000000  00000+0  00000-0 0  9993
2 29814  55.0000 330.0000 0000000   0.0000 168.0000  2.02645322    14
CTC2_L_00665012-03
1 29815U 23837RA  26070.40853009  .00000000  00000+0  00000-0 0  9991
2 29815  55.0000 330.0000 0000000   0.0000 204.0000  2.02645322    16
CTC2_L_00665012-04
1 29816U 23611CI  26070.40853009  .00000000  00000+0  00000-0 0  9992
2 29816  55.0000 330.0000 0000000   0.0000 240.0000  2.02645322    17
CTC2_L_00665012-05
1 29817U 25313CK  26070.40853009  .00000000  00000+0  00000-0 0  9994
2 29817  55.0000 330.0000 0000000   0.0000 276.0000  2.02645322    17
CTC2_L_00665012-06
1 29818U 23061NS  26070.40853009  .00000000  00000+0  00000-0 0  9993
2 29818  55.0000 330.0000 0000000   0.0000 312.0000  2.02645322    19
CTC2_L_00665012-07
1 29819U 22930DX  26070.40853009  .00000000  00000+0  00000-0 0  9998
2 29819  55.0000 330.0000 0000000   0.0000 348.0000  2.02645322    19
CTC2_L_00665012-08
1 29820U 26683VS  26070.40853009  .00000000  00000+0  00000-0 0  9999
2 29820  55.0000 330.0000 0000000   0.0000  24.0000  2.02645322    12
CTC2_L_00665012-09
1 29821U 26869ZL  26070.40853009  .00000000  00000+0  00000-0 0  9996
2 29821  55.0000 330.0000 0000000   0.0000  60.0000  2.02645322    13
CTC2_L_00665012-10
1 29822U 26202UL  26070.40853009  .00000000  00000+0  00000-0 0  9998
2 29822  55.0000 330.0000 0000000   0.0000  96.0000  2.02645322    13
